IRIDIUM 39              
1 25042U 97069D   25352.88259510  .00000550  00000+0  13793-3 0  9994
2 25042  86.3921 131.9970 0019274  53.8232 306.4752 14.49514086475713
IRIDIUM 38              
1 25043U 97069E   25352.96079447  .00000387  00000+0  12075-3 0  9993
2 25043  86.3973 155.4916 0001955 149.0739 211.0574 14.38319676472513
IRIDIUM 42              
1 25077U 97077A   25352.84637241  .00000364  00000+0  11725-3 0  9994
2 25077  86.3979 161.9348 0001509 110.1044 250.0316 14.36537215467701
IRIDIUM 44              
1 25078U 97077B   25352.92725092  .00000314  00000+0  92573-4 0  9992
2 25078  86.3969 143.3443 0003574 115.0090 245.1481 14.40436804470293
IRIDIUM 45              
1 25104U 97082A   25352.94830921  .00027676  00000+0  77746-3 0  9992
2 25104  86.3538 317.6174 0097495 357.7037   2.3749 15.31649524480223
IRIDIUM 24              
1 25105U 97082B   25352.93795862  .00000387  00000+0  11117-3 0  9996
2 25105  86.3908   1.9219 0011313 176.2393 183.8895 14.42333481469847
IRIDIUM 51              
1 25262U 98018A   25352.92080523  .00083771  00000+0  85863-3 0  9997
2 25262  86.3726 323.0665 0046196 247.1831 112.4553 15.63301507475613
IRIDIUM 57              
1 25273U 98019B   25352.76455388  .00000280  00000+0  89397-4 0  9998
2 25273  86.3954  67.8631 0002156  98.3565 261.7877 14.36055704451279
